0 DELTA 1 DEB
1 07079U 73086BX  13282.81461551 -.00000022  00000-0  18109-3 0  3715
2 07079 102.1259 343.7842 0036263 132.0844 294.5027 12.33990194791757
0 DELTA 1 DEB
1 07079U 73086BX  13287.45014678  .00000000  00000-0  36094-3 0  3734
2 07079 102.1250 348.3473 0036224 123.6868 007.1482 12.33990186792326
0 DELTA 1 DEB
1 07079U 73086BX  13289.47370814 -.00000015  00000-0  24041-3 0  3742
2 07079 102.1243 350.3393 0036220 120.0088 356.5241 12.33990314792577
0 DELTA 1 DEB
1 07079U 73086BX  13291.82507007 -.00000027  00000-0  14097-3 0  3754
2 07079 102.1237 352.6536 0036205 115.7415 002.1015 12.33990529792865
0 DELTA 1 DEB
1 07079U 73086BX  13293.91601613 -.00000045  00000-0 -63112-5 0  3760
2 07079 102.1236 354.7115 0036194 111.9358 290.8320 12.33990685793129
0 DELTA 1 DEB
1 07079U 73086BX  13296.17907669 -.00000054  00000-0 -75555-4 0  3775
2 07079 102.1235 356.9386 0036210 107.8024 264.1717 12.33990832793404
